[{"OBJECT_NAME":"YAOGAN-40 03B","OBJECT_ID":"2025-199B","EPOCH":"2026-03-10T00:01:41.907936","MEAN_MOTION":14.12426909,"ECCENTRICITY":0.00025675,"INCLINATION":85.9851,"RA_OF_ASC_NODE":88.6192,"ARG_OF_PERICENTER":88.5061,"MEAN_ANOMALY":271.6416,"EPHEMERIS_TYPE":0,"CLASSIFICATION_TYPE":"U","NORAD_CAT_ID":65545,"ELEMENT_SET_NO":999,"REV_AT_EPOCH":2603,"BSTAR":7.1131011e-5,"MEAN_MOTION_DOT":1.5e-6,"MEAN_MOTION_DDOT":0},{"OBJECT_NAME":"NOAA 13","OBJECT_ID":"1993-050A","EPOCH":"2026-03-09T20:41:21.871680","MEAN_MOTION":14.13636648,"ECCENTRICITY":0.00104038,"INCLINATION":98.6932,"RA_OF_ASC_NODE":16.6043,"ARG_OF_PERICENTER":56.5597,"MEAN_ANOMALY":303.657,"EPHEMERIS_TYPE":0,"CLASSIFICATION_TYPE":"U","NORAD_CAT_ID":22739,"ELEMENT_SET_NO":999,"REV_AT_EPOCH":67934,"BSTAR":0.00011464564,"MEAN_MOTION_DOT":1.74e-6,"MEAN_MOTION_DDOT":0}]
